DUCHIFAT-1              
1 40021U 14033M   26190.11683618  .00097268  00000+0  81159-3 0  9998
2 40021  98.0435 252.4424 0001719 258.2829 101.8238 15.69759950659183
NANOSATC-BR1            
1 40024U 14033Q   26189.89295221  .00012243  00000+0  39647-3 0  9998
2 40024  98.0720 224.2139 0005305 111.5840 248.5966 15.32184216657308
QB50P1                  
1 40025U 14033R   26189.96268602  .00005242  00000+0  25682-3 0  9995
2 40025  98.0972 202.6398 0009975 143.0121 217.1801 15.18602701656334
DTUSAT-2                
1 40030U 14033W   26190.82392766  .00004883  00000+0  26303-3 0  9998
2 40030  98.0874 189.9933 0008890 147.9693 212.2079 15.15308119656117
QB50P2                  
1 40032U 14033Y   26190.81602461  .00005365  00000+0  28728-3 0  9994
2 40032  98.0761 189.1099 0009315  98.7744 261.4542 15.15461422656097
PERSEUS-M1              
1 40039U 14033AF  26190.58181363  .00001243  00000+0  11701-3 0  9992
2 40039  97.9647 135.0829 0010603 216.9043 143.1448 14.95701333653985
POLYITAN-1              
1 40042U 14033AJ  26190.04009571  .00013569  00000+0  41372-3 0  9998
2 40042  98.0943 218.3797 0008317  82.3047 277.9138 15.34063134656942
TIGRISAT                
1 40043U 14033AK  26190.14651385  .00001209  00000+0  14433-3 0  9992
2 40043  97.7856 339.6587 0049175   4.2911 355.8715 14.85238395648885
CANX-4                  
1 40055U 14034C   26190.71346684  .00000596  00000+0  83716-4 0  9991
2 40055  98.3093  66.8506 0011612 302.4173  57.5914 14.81305301647868
CANX-5                  
1 40056U 14034D   26190.10370604  .00000612  00000+0  85658-4 0  9990
2 40056  98.3096  66.2635 0011636 304.7707  55.2409 14.81321616638583
GONETS-M 10             
1 40063U 14036C   26190.85006649  .00000066  00000+0  40225-3 0  9990
2 40063  82.5118 293.5990 0023000  93.5210 266.8500 12.42946505545067
METEOR-M 2              
1 40069U 14037A   26190.81113938 -.00000204  00000+0 -73851-4 0  9991
2 40069  98.5128 165.7491 0005477 344.1090  15.9915 14.21467602622532
DX1                     
1 40071U 14037C   26190.85802516  .00001516  00000+0  16348-3 0  9997
2 40071  98.3877 153.9374 0006603 186.5451 173.5680 14.90055092649489
UKUBE-1                 
1 40074U 14037F   26190.77553352  .00005644  00000+0  31609-3 0  9995
2 40074  98.4244 196.4263 0003240  97.6551 262.5046 15.13896142651974
GAOFEN-2                
1 40118U 14049A   26190.87890387  .00000643  00000+0  90026-4 0  9993
2 40118  98.0098 255.0636 0007917 150.0054 210.1613 14.80924757642593
BRITE-PL2 (HEWELIUSZ)   
1 40119U 14049B   26190.26496503  .00001666  00000+0  15885-3 0  9994
2 40119  97.9114 302.4379 0014777  41.3663 318.8673 14.94675108644741
CBERS 4                 
1 40336U 14079A   26190.82969931 -.00000076  00000+0 -11793-4 0  9991
2 40336  98.3520 246.9498 0001021  49.6302 310.4973 14.35514709607206
SMAP                    
1 40376U 15003A   26190.84906517  .00000259  00000+0  59132-4 0  9996
2 40376  98.1280 197.6229 0001554  96.3836 263.7543 14.63386298610935
GONETS-M 11             
1 40552U 15020A   26190.86966648  .00000033  00000+0  16677-3 0  9990
2 40552  82.4868  16.8551 0015565 315.6325  44.3507 12.42878169511555
GONETS-M 12             
1 40553U 15020B   26190.84291286  .00000042  00000+0  22919-3 0  9994
2 40553  82.4902  18.0015 0014375 299.7913  60.1737 12.42891807511541
GONETS-M 13             
1 40554U 15020C   26190.81677249 -.00000069  00000+0 -56714-3 0  9990
2 40554  82.4864  16.6263 0012850 283.9532  76.0119 12.42871265511519
DMC3-FM1                
1 40715U 15032A   26190.83411674  .00000340  00000+0  44988-4 0  9993
2 40715  97.6438  55.1178 0005371 355.8782   4.2389 14.85762903593274
DMC3-FM2                
1 40716U 15032B   26190.85607616  .00000943  00000+0  11446-3 0  9990
2 40716  97.6494  56.7282 0006009   0.6866 359.4357 14.85771855593273
DMC3-FM3                
1 40717U 15032C   26190.81221721  .00000381  00000+0  49798-4 0  9994
2 40717  97.6546  58.4536 0005339   3.0364 357.0883 14.85760475593272
CARBONITE 1 (CBNT-1)    
1 40718U 15032D   26190.84374281  .00001346  00000+0  16898-3 0  9994
2 40718  97.6523   7.9637 0013447 215.6538 144.3780 14.83657681592704
LILACSAT-2              
1 40908U 15049K   26190.84120551  .00014753  00000+0  24450-3 0  9991
2 40908  97.4632 228.5514 0008024 157.4718 202.6888 15.52224887599267
COSMOS 2507 (RODNIK-S *)
1 40920U 15050A   26190.85115711 -.00000040  00000+0 -36198-3 0  9998
2 40920  82.4913  65.5579 0009196 306.1780  53.8449 12.42927076489678
