OBJECT_NAME,OBJECT_ID,EPOCH,MEAN_MOTION,ECCENTRICITY,INCLINATION,RA_OF_ASC_NODE,ARG_OF_PERICENTER,MEAN_ANOMALY,EPHEMERIS_TYPE,CLASSIFICATION_TYPE,NORAD_CAT_ID,ELEMENT_SET_NO,REV_AT_EPOCH,BSTAR,MEAN_MOTION_DOT,MEAN_MOTION_DDOT
DUCHIFAT-1,2014-033M,2026-07-09T02:48:14.645952,15.69759950,.0001719,98.0435,252.4424,258.2829,101.8238,0,U,40021,999,65918,.8115863E-3,.97268E-3,0
NANOSATC-BR1,2014-033Q,2026-07-08T21:25:51.070944,15.32184216,.00053051,98.0720,224.2139,111.5840,248.5966,0,U,40024,999,65730,.39647021E-3,.12243E-3,0
QB50P1,2014-033R,2026-07-08T23:06:16.072128,15.18602701,.00099759,98.0972,202.6398,143.0121,217.1801,0,U,40025,999,65633,.25681755E-3,.5242E-4,0
DTUSAT-2,2014-033W,2026-07-09T19:46:27.349824,15.15308119,.000889,98.0874,189.9933,147.9693,212.2079,0,U,40030,999,65611,.26303E-3,.4883E-4,0
QB50P2,2014-033Y,2026-07-09T19:35:04.526304,15.15461422,.0009315,98.0761,189.1099,98.7744,261.4542,0,U,40032,999,65609,.28728E-3,.5365E-4,0
PERSEUS-M1,2014-033AF,2026-07-09T13:57:48.697632,14.95701333,.0010603,97.9647,135.0829,216.9043,143.1448,0,U,40039,999,65398,.11701E-3,.1243E-4,0
POLYITAN-1,2014-033AJ,2026-07-09T00:57:44.269344,15.34063134,.00083174,98.0943,218.3797,82.3047,277.9138,0,U,40042,999,65694,.41372107E-3,.13569E-3,0
TIGRISAT,2014-033AK,2026-07-09T03:30:58.796640,14.85238395,.00491754,97.7856,339.6587,4.2911,355.8715,0,U,40043,999,64888,.14432965E-3,.1209E-4,0
CANX-4,2014-034C,2026-07-09T17:07:23.534976,14.81305301,.0011612,98.3093,66.8506,302.4173,57.5914,0,U,40055,999,64786,.83716E-4,.596E-5,0
CANX-5,2014-034D,2026-07-09T02:29:20.201856,14.81321616,.0011636,98.3096,66.2635,304.7707,55.2409,0,U,40056,999,63858,.85658027E-4,.612E-5,0
GONETS-M 10,2014-036C,2026-07-09T20:24:05.744736,12.42946505,.0023,82.5118,293.5990,93.5210,266.8500,0,U,40063,999,54506,.40225E-3,.66E-6,0
METEOR-M 2,2014-037A,2026-07-09T19:28:02.442432,14.21467602,.0005477,98.5128,165.7491,344.1090,15.9915,0,U,40069,999,62253,-.73851E-4,-.204E-5,0
DX1,2014-037C,2026-07-09T20:35:33.373824,14.90055092,.0006603,98.3877,153.9374,186.5451,173.5680,0,U,40071,999,64948,.16348E-3,.1516E-4,0
UKUBE-1,2014-037F,2026-07-09T18:36:46.096128,15.13896142,.000324,98.4244,196.4263,97.6551,262.5046,0,U,40074,999,65197,.31609E-3,.5644E-4,0
GAOFEN-2,2014-049A,2026-07-09T21:05:37.294368,14.80924757,.0007917,98.0098,255.0636,150.0054,210.1613,0,U,40118,999,64259,.90026E-4,.643E-5,0
BRITE-PL2 (HEWELIUSZ),2014-049B,2026-07-09T06:21:32.978592,14.94675108,.00147773,97.9114,302.4379,41.3663,318.8673,0,U,40119,999,64474,.15885348E-3,.1666E-4,0
CBERS 4,2014-079A,2026-07-09T19:54:46.020384,14.35514709,.0001021,98.3520,246.9498,49.6302,310.4973,0,U,40336,999,60720,-.11793E-4,-.76E-6,0
SMAP,2015-003A,2026-07-09T20:22:39.230688,14.63386298,.0001554,98.1280,197.6229,96.3836,263.7543,0,U,40376,999,61093,.59132E-4,.259E-5,0
GONETS-M 11,2015-020A,2026-07-09T20:52:19.183872,12.42878169,.0015565,82.4868,16.8551,315.6325,44.3507,0,U,40552,999,51155,.16677E-3,.33E-6,0
GONETS-M 12,2015-020B,2026-07-09T20:13:47.671104,12.42891807,.0014375,82.4902,18.0015,299.7913,60.1737,0,U,40553,999,51154,.22919E-3,.42E-6,0
GONETS-M 13,2015-020C,2026-07-09T19:36:09.143136,12.42871265,.001285,82.4864,16.6263,283.9532,76.0119,0,U,40554,999,51151,-.56714E-3,-.69E-6,0
DMC3-FM1,2015-032A,2026-07-09T20:01:07.686336,14.85762903,.0005371,97.6438,55.1178,355.8782,4.2389,0,U,40715,999,59327,.44988E-4,.34E-5,0
DMC3-FM2,2015-032B,2026-07-09T20:32:44.980224,14.85771855,.0006009,97.6494,56.7282,0.6866,359.4357,0,U,40716,999,59327,.11446E-3,.943E-5,0
DMC3-FM3,2015-032C,2026-07-09T19:29:35.566944,14.85760475,.0005339,97.6546,58.4536,3.0364,357.0883,0,U,40717,999,59327,.49798E-4,.381E-5,0
CARBONITE 1 (CBNT-1),2015-032D,2026-07-09T20:14:59.378784,14.83657681,.0013447,97.6523,7.9637,215.6538,144.3780,0,U,40718,999,59270,.16898E-3,.1346E-4,0
LILACSAT-2,2015-049K,2026-07-09T20:11:20.156064,15.52224887,.0008024,97.4632,228.5514,157.4718,202.6888,0,U,40908,999,59926,.2445E-3,.14753E-3,0
COSMOS 2507 (RODNIK-S 13),2015-050A,2026-07-09T20:25:39.974304,12.42927076,.0009196,82.4913,65.5579,306.1780,53.8449,0,U,40920,999,48967,-.36198E-3,-.4E-6,0
